GEOSCAN 3 (RS92S3)      
1 64893U 25155T   26154.89589959  .00019599  00000+0  57996-3 0  9999
2 64893  97.4537 124.6234 0004650 207.1696 152.9305 15.34928532 78816
INNOSAT 3 (RS92S0)      
1 64894U 25155U   26154.89162545  .00040247  00000+0  91604-3 0  9996
2 64894  97.4489 126.0796 0003939 187.9720 172.1465 15.42851281 78911
KNACKSAT-2              
1 67683U 98067XZ  26153.80264404  .00045408  00000+0  58253-3 0  9991
2 67683  51.6300   6.7601 0010958 153.2067 206.9494 15.58609395 18031
