OBJECT_NAME,OBJECT_ID,EPOCH,MEAN_MOTION,ECCENTRICITY,INCLINATION,RA_OF_ASC_NODE,ARG_OF_PERICENTER,MEAN_ANOMALY,EPHEMERIS_TYPE,CLASSIFICATION_TYPE,NORAD_CAT_ID,ELEMENT_SET_NO,REV_AT_EPOCH,BSTAR,MEAN_MOTION_DOT,MEAN_MOTION_DDOT
GEOSCAN 3 (RS92S3),2025-155T,2026-06-03T21:30:05.724576,15.34928532,.00046501,97.4537,124.6234,207.1696,152.9305,0,U,64893,999,7881,.57996278E-3,.19599E-3,0
INNOSAT 3 (RS92S0),2025-155U,2026-06-03T21:23:56.438880,15.42851281,.00039395,97.4489,126.0796,187.9720,172.1465,0,U,64894,999,7891,.91603578E-3,.40247E-3,0
KNACKSAT-2,1998-067XZ,2026-06-02T19:15:48.445056,15.58609395,.0010958,51.6300,6.7601,153.2067,206.9494,0,U,67683,999,1803,.58253104E-3,.45408E-3,0
